ONEWEB-0516             
1 54134U 22138X   25267.78844856 -.00000003  00000+0 -39071-4 0  9993
2 54134  87.9272 357.7712 0001675 103.2911 256.8408 13.19724662141822
ONEWEB-0517             
1 54135U 22138Y   25267.76791104 -.00003272  00000+0 -82055-2 0  9998
2 54135  87.9294 357.7410 0001775  88.8451 271.2885 13.19741732141827
ONEWEB-0518             
1 54136U 22138Z   25267.78685852 -.00000039  00000+0 -13000-3 0  9996
2 54136  87.9283 357.7720 0001623 100.6438 259.4878 13.19725222141826
ONEWEB-0519             
1 54137U 22138AA  25267.50887662  .00000202  00000+0  47179-3 0  9994
2 54137  87.9293 357.7841 0001820  92.5742 267.5599 13.19726519141794
ONEWEB-0520             
1 54138U 22138AB  25267.77106370 -.00000005  00000+0 -45417-4 0  9991
2 54138  87.9294 357.7361 0001505 104.5595 255.5705 13.19725572141810
ONEWEB-0521             
1 54139U 22138AC  25267.50096846  .00000130  00000+0  29330-3 0  9991
2 54139  87.9290 357.7755 0001983  93.2190 266.9170 13.19727454141722
ONEWEB-0522             
1 54140U 22138AD  25267.78370104  .00000006  00000+0 -17693-4 0  9998
2 54140  87.9289 357.7206 0001741 102.3772 257.7556 13.19726944141801
ONEWEB-0523             
1 54141U 22138AE  25267.73021479  .00000013  00000+0  12050-5 0  9992
2 54141  87.9253 327.3745 0002751  97.1585 262.9861 13.20771420144260
ONEWEB-0524             
1 54142U 22138AF  25267.71915237 -.00000052  00000+0 -15958-3 0  9998
2 54142  87.9254 327.3774 0002536 116.2629 243.8765 13.20769285144264
ONEWEB-0525             
1 54143U 22138AG  25267.49938688  .00000111  00000+0  24444-3 0  9993
2 54143  87.9293 357.7985 0001516 103.5622 256.5680 13.19724390141785
ONEWEB-0526             
1 54144U 22138AH  25267.76000783 -.00000005  00000+0 -43842-4 0  9998
2 54144  87.9293 357.7336 0001729 102.2781 257.8546 13.19725379141798
ONEWEB-0529             
1 54145U 22138AJ  25267.76317543  .00000037  00000+0  59652-4 0  9993
2 54145  87.9282 357.7718 0001575 104.0293 256.1015 13.19725244141815
ONEWEB-0531             
1 54146U 22138AK  25267.55343315  .00000149  00000+0  33499-3 0  9991
2 54146  87.9253 327.4014 0002785 102.8248 257.3197 13.20772372144247
ONEWEB-0535             
1 54147U 22138AL  25267.79633476 -.00000032  00000+0 -11230-3 0  9990
2 54147  87.9289 357.7219 0002211  97.2869 262.8516 13.19726097141839
ONEWEB-0536             
1 54148U 22138AM  25267.69232378  .00000006  00000+0 -16936-4 0  9995
2 54148  87.9253 327.4209 0002859 107.3874 252.7573 13.20770981144254
ONEWEB-0527             
1 54642U 22166A   25267.47701208  .00000024  00000+0  27643-4 0  9990
2 54642  87.9186 297.0257 0001861  95.8045 264.3301 13.21823935136434
