[{"OBJECT_NAME":"ONEWEB-0516","OBJECT_ID":"2022-138X","EPOCH":"2025-09-24T18:55:21.955584","MEAN_MOTION":13.19724662,"ECCENTRICITY":0.00016758,"INCLINATION":87.9272,"RA_OF_ASC_NODE":357.7712,"ARG_OF_PERICENTER":103.2911,"MEAN_ANOMALY":256.8408,"EPHEMERIS_TYPE":0,"CLASSIFICATION_TYPE":"U","NORAD_CAT_ID":54134,"ELEMENT_SET_NO":999,"REV_AT_EPOCH":14182,"BSTAR":-3.9070601e-5,"MEAN_MOTION_DOT":-3.0e-8,"MEAN_MOTION_DDOT":0},{"OBJECT_NAME":"ONEWEB-0517","OBJECT_ID":"2022-138Y","EPOCH":"2025-09-24T18:25:47.513856","MEAN_MOTION":13.19741732,"ECCENTRICITY":0.00017759,"INCLINATION":87.9294,"RA_OF_ASC_NODE":357.741,"ARG_OF_PERICENTER":88.8451,"MEAN_ANOMALY":271.2885,"EPHEMERIS_TYPE":0,"CLASSIFICATION_TYPE":"U","NORAD_CAT_ID":54135,"ELEMENT_SET_NO":999,"REV_AT_EPOCH":14182,"BSTAR":-0.0082054912,"MEAN_MOTION_DOT":-3.272e-5,"MEAN_MOTION_DDOT":0},{"OBJECT_NAME":"ONEWEB-0518","OBJECT_ID":"2022-138Z","EPOCH":"2025-09-24T18:53:04.576128","MEAN_MOTION":13.19725222,"ECCENTRICITY":0.00016236,"INCLINATION":87.9283,"RA_OF_ASC_NODE":357.772,"ARG_OF_PERICENTER":100.6438,"MEAN_ANOMALY":259.4878,"EPHEMERIS_TYPE":0,"CLASSIFICATION_TYPE":"U","NORAD_CAT_ID":54136,"ELEMENT_SET_NO":999,"REV_AT_EPOCH":14182,"BSTAR":-0.00013000231,"MEAN_MOTION_DOT":-3.9e-7,"MEAN_MOTION_DDOT":0},{"OBJECT_NAME":"ONEWEB-0519","OBJECT_ID":"2022-138AA","EPOCH":"2025-09-24T12:12:46.939968","MEAN_MOTION":13.19726519,"ECCENTRICITY":0.00018205,"INCLINATION":87.9293,"RA_OF_ASC_NODE":357.7841,"ARG_OF_PERICENTER":92.5742,"MEAN_ANOMALY":267.5599,"EPHEMERIS_TYPE":0,"CLASSIFICATION_TYPE":"U","NORAD_CAT_ID":54137,"ELEMENT_SET_NO":999,"REV_AT_EPOCH":14179,"BSTAR":0.0004717867,"MEAN_MOTION_DOT":2.02e-6,"MEAN_MOTION_DDOT":0},{"OBJECT_NAME":"ONEWEB-0520","OBJECT_ID":"2022-138AB","EPOCH":"2025-09-24T18:30:19.903680","MEAN_MOTION":13.19725572,"ECCENTRICITY":0.00015051,"INCLINATION":87.9294,"RA_OF_ASC_NODE":357.7361,"ARG_OF_PERICENTER":104.5595,"MEAN_ANOMALY":255.5705,"EPHEMERIS_TYPE":0,"CLASSIFICATION_TYPE":"U","NORAD_CAT_ID":54138,"ELEMENT_SET_NO":999,"REV_AT_EPOCH":14181,"BSTAR":-4.5416856e-5,"MEAN_MOTION_DOT":-5.0e-8,"MEAN_MOTION_DDOT":0},{"OBJECT_NAME":"ONEWEB-0521","OBJECT_ID":"2022-138AC","EPOCH":"2025-09-24T12:01:23.674944","MEAN_MOTION":13.19727454,"ECCENTRICITY":0.00019839,"INCLINATION":87.929,"RA_OF_ASC_NODE":357.7755,"ARG_OF_PERICENTER":93.219,"MEAN_ANOMALY":266.917,"EPHEMERIS_TYPE":0,"CLASSIFICATION_TYPE":"U","NORAD_CAT_ID":54139,"ELEMENT_SET_NO":999,"REV_AT_EPOCH":14172,"BSTAR":0.00029329749,"MEAN_MOTION_DOT":1.3e-6,"MEAN_MOTION_DDOT":0},{"OBJECT_NAME":"ONEWEB-0522","OBJECT_ID":"2022-138AD","EPOCH":"2025-09-24T18:48:31.769856","MEAN_MOTION":13.19726944,"ECCENTRICITY":0.0001741,"INCLINATION":87.9289,"RA_OF_ASC_NODE":357.7206,"ARG_OF_PERICENTER":102.3772,"MEAN_ANOMALY":257.7556,"EPHEMERIS_TYPE":0,"CLASSIFICATION_TYPE":"U","NORAD_CAT_ID":54140,"ELEMENT_SET_NO":999,"REV_AT_EPOCH":14180,"BSTAR":-1.7692959e-5,"MEAN_MOTION_DOT":6.0e-8,"MEAN_MOTION_DDOT":0},{"OBJECT_NAME":"ONEWEB-0523","OBJECT_ID":"2022-138AE","EPOCH":"2025-09-24T17:31:30.557856","MEAN_MOTION":13.2077142,"ECCENTRICITY":0.0002751,"INCLINATION":87.9253,"RA_OF_ASC_NODE":327.3745,"ARG_OF_PERICENTER":97.1585,"MEAN_ANOMALY":262.9861,"EPHEMERIS_TYPE":0,"CLASSIFICATION_TYPE":"U","NORAD_CAT_ID":54141,"ELEMENT_SET_NO":999,"REV_AT_EPOCH":14426,"BSTAR":1.205024e-6,"MEAN_MOTION_DOT":1.3e-7,"MEAN_MOTION_DDOT":0},{"OBJECT_NAME":"ONEWEB-0524","OBJECT_ID":"2022-138AF","EPOCH":"2025-09-24T17:15:34.764768","MEAN_MOTION":13.20769285,"ECCENTRICITY":0.00025368,"INCLINATION":87.9254,"RA_OF_ASC_NODE":327.3774,"ARG_OF_PERICENTER":116.2629,"MEAN_ANOMALY":243.8765,"EPHEMERIS_TYPE":0,"CLASSIFICATION_TYPE":"U","NORAD_CAT_ID":54142,"ELEMENT_SET_NO":999,"REV_AT_EPOCH":14426,"BSTAR":-0.00015957592,"MEAN_MOTION_DOT":-5.2e-7,"MEAN_MOTION_DDOT":0},{"OBJECT_NAME":"ONEWEB-0525","OBJECT_ID":"2022-138AG","EPOCH":"2025-09-24T11:59:07.026432","MEAN_MOTION":13.1972439,"ECCENTRICITY":0.00015169,"INCLINATION":87.9293,"RA_OF_ASC_NODE":357.7985,"ARG_OF_PERICENTER":103.5622,"MEAN_ANOMALY":256.568,"EPHEMERIS_TYPE":0,"CLASSIFICATION_TYPE":"U","NORAD_CAT_ID":54143,"ELEMENT_SET_NO":999,"REV_AT_EPOCH":14178,"BSTAR":0.00024443656,"MEAN_MOTION_DOT":1.11e-6,"MEAN_MOTION_DDOT":0},{"OBJECT_NAME":"ONEWEB-0526","OBJECT_ID":"2022-138AH","EPOCH":"2025-09-24T18:14:24.676512","MEAN_MOTION":13.19725379,"ECCENTRICITY":0.00017291,"INCLINATION":87.9293,"RA_OF_ASC_NODE":357.7336,"ARG_OF_PERICENTER":102.2781,"MEAN_ANOMALY":257.8546,"EPHEMERIS_TYPE":0,"CLASSIFICATION_TYPE":"U","NORAD_CAT_ID":54144,"ELEMENT_SET_NO":999,"REV_AT_EPOCH":14179,"BSTAR":-4.3841787e-5,"MEAN_MOTION_DOT":-5.0e-8,"MEAN_MOTION_DDOT":0},{"OBJECT_NAME":"ONEWEB-0529","OBJECT_ID":"2022-138AJ","EPOCH":"2025-09-24T18:18:58.357152","MEAN_MOTION":13.19725244,"ECCENTRICITY":0.00015757,"INCLINATION":87.9282,"RA_OF_ASC_NODE":357.7718,"ARG_OF_PERICENTER":104.0293,"MEAN_ANOMALY":256.1015,"EPHEMERIS_TYPE":0,"CLASSIFICATION_TYPE":"U","NORAD_CAT_ID":54145,"ELEMENT_SET_NO":999,"REV_AT_EPOCH":14181,"BSTAR":5.9651758e-5,"MEAN_MOTION_DOT":3.7e-7,"MEAN_MOTION_DDOT":0},{"OBJECT_NAME":"ONEWEB-0531","OBJECT_ID":"2022-138AK","EPOCH":"2025-09-24T13:16:56.624160","MEAN_MOTION":13.20772372,"ECCENTRICITY":0.00027851,"INCLINATION":87.9253,"RA_OF_ASC_NODE":327.4014,"ARG_OF_PERICENTER":102.8248,"MEAN_ANOMALY":257.3197,"EPHEMERIS_TYPE":0,"CLASSIFICATION_TYPE":"U","NORAD_CAT_ID":54146,"ELEMENT_SET_NO":999,"REV_AT_EPOCH":14424,"BSTAR":0.00033499124,"MEAN_MOTION_DOT":1.49e-6,"MEAN_MOTION_DDOT":0},{"OBJECT_NAME":"ONEWEB-0535","OBJECT_ID":"2022-138AL","EPOCH":"2025-09-24T19:06:43.323264","MEAN_MOTION":13.19726097,"ECCENTRICITY":0.00022116,"INCLINATION":87.9289,"RA_OF_ASC_NODE":357.7219,"ARG_OF_PERICENTER":97.2869,"MEAN_ANOMALY":262.8516,"EPHEMERIS_TYPE":0,"CLASSIFICATION_TYPE":"U","NORAD_CAT_ID":54147,"ELEMENT_SET_NO":999,"REV_AT_EPOCH":14183,"BSTAR":-0.00011229647,"MEAN_MOTION_DOT":-3.2e-7,"MEAN_MOTION_DDOT":0},{"OBJECT_NAME":"ONEWEB-0536","OBJECT_ID":"2022-138AM","EPOCH":"2025-09-24T16:36:56.774592","MEAN_MOTION":13.20770981,"ECCENTRICITY":0.00028599,"INCLINATION":87.9253,"RA_OF_ASC_NODE":327.4209,"ARG_OF_PERICENTER":107.3874,"MEAN_ANOMALY":252.7573,"EPHEMERIS_TYPE":0,"CLASSIFICATION_TYPE":"U","NORAD_CAT_ID":54148,"ELEMENT_SET_NO":999,"REV_AT_EPOCH":14425,"BSTAR":-1.6936414e-5,"MEAN_MOTION_DOT":6.0e-8,"MEAN_MOTION_DDOT":0},{"OBJECT_NAME":"ONEWEB-0527","OBJECT_ID":"2022-166A","EPOCH":"2025-09-24T11:26:53.843712","MEAN_MOTION":13.21823935,"ECCENTRICITY":0.00018615,"INCLINATION":87.9186,"RA_OF_ASC_NODE":297.0257,"ARG_OF_PERICENTER":95.8045,"MEAN_ANOMALY":264.3301,"EPHEMERIS_TYPE":0,"CLASSIFICATION_TYPE":"U","NORAD_CAT_ID":54642,"ELEMENT_SET_NO":999,"REV_AT_EPOCH":13643,"BSTAR":2.7643182e-5,"MEAN_MOTION_DOT":2.4e-7,"MEAN_MOTION_DDOT":0}]
